st_number,pos_code,label,LON,LAT,NUMBER,STREET,UNIT,CITY,DISTRICT,REGION,POSTCODE,ID,HASH
1,"B4C 3H9",residential,-63.6891562,44.7821735,1,"SMOKEY DR",,"LOWER SACKVILLE",,,"B4C 3H9",,2d5a133fc569141d
114,"B2W 2S7",business,-63.5339826,44.6722129,114,"WOODLAWN RD",,DARTMOUTH,,,"B2W 2S7",,b23640796dda7e33
11,"B3P 1N3",business,-63.6192786,44.6236187,11,"MONT ST",,HALIFAX,,,"B3P 1N3",,c87c664e5db958f4
2406,"B3K 3C1",residential,-63.5885998,44.6554263,2406,"GOTTINGEN ST",,HALIFAX,,,"B3K 3C1",,dd9ca8b5d842bce7
6,"B3S 1G5",business,-63.6742094,44.6717695,6,"ASTER CRT",,HALIFAX,,,"B3S 1G5",,54e8a34a18d4ff15
3,"B3R 1J7",business,-63.6110656,44.6034824,3,"SYLVIA AVE",,HALIFAX,,,"B3R 1J7",,1357bd43818508bb
144,"B2V 1H6",business,-63.4886299,44.6677334,144,"AVONDALE RD",,"COLE HARBOUR",,,"B2V 1H6",,e59416856da44207
21,"B2W 2R7",business,-63.526932,44.6838304,21,"WOODLAWN RD",,DARTMOUTH,,,"B2W 2R7",,448deeecde838779
110,"B3N 2L1",business,-63.6412376,44.6521522,110,"FREDERICK AVE",,HALIFAX,,,"B3N 2L1",,23cbeafff5975390
540,"B4A 0C9",business,-63.6777524,44.7015746,540,"SOUTHGATE DR",,BEDFORD,,,"B4A 0C9",,e677733f4cd60eb7
6724,"B3L 2R9",business,-63.6218379,44.6579013,6724,"CHISHOLM AVE",,HALIFAX,,,"B3L 2R9",,966938f2e88d0df2
3792,"B3K 3G5",residential,-63.6126252,44.6712363,3792,"NOVALEA DR",,HALIFAX,,,"B3K 3G5",,f3341a02a830a13e
8,"B2Y 1Y2",business,-63.5430613,44.6780105,8,"BEACON ST",,DARTMOUTH,,,"B2Y 1Y2",,07df5f4c4d53320b
211,"B2X 3T4",business,-63.5329491,44.707026,211,"AVENUE DU PORTAGE",,DARTMOUTH,,,"B2X 3T4",,48c61b2542cac420
2,"B4B 1J2",residential,-63.7390739,44.7234422,2,"WOODLYN DR",,"HAMMONDS PLAINS",,,"B4B 1J2",,c58f2b41174569e8
1583,"B4G 1C5",business,-63.6847355,44.8495551,1583,"BEAVER BANK RD",,"BEAVER BANK",,,"B4G 1C5",,fb8c90deb88aa503
30,"B0J 3A0",business,-63.5160091,44.6289872,30,"PROVIDER RD",,SHEARWATER,,,"B0J 3A0",,ecaacd253b20e31b
59,"B3M 3M5",business,-63.6398189,44.6607803,59,"GLENFOREST DR",,HALIFAX,,,"B3M 3M5",,79e9af0204d8084f
30,"B0J 3A0",business,-63.52109,44.6302278,30,"HARVARD DR",,SHEARWATER,,,"B0J 3A0",,3f4f8e23d8c9435d
1,"B0J 1T0",residential,-63.9972387,44.6529996,1,"CLEVELAND POINT RD",,QUEENSLAND,,,"B0J 1T0",,fdb88a870b8007c4
45,"B2Y 4M7",residential,-63.5688481,44.6665949,45,"OCHTERLONEY ST",,DARTMOUTH,,,"B2Y 4M7",,94731e167be1a4be
20,"B0J 1T0",business,-64.0527361,44.6354819,20,"DUNCAN LANE",,HUBBARDS,,,"B0J 1T0",,e7ffef661b29d93d
5,"B3M 2Y9",business,-63.6635108,44.6825347,5,"SILVERWOOD TERR",,HALIFAX,,,"B3M 2Y9",,3b7381436d0e2030
103,"B3M 1A8",residential,-63.637942,44.6584388,103,"MAIN AVE",,HALIFAX,,,"B3M 1A8",,400060d6ee731445
1024,"B0J 3A0",business,-63.5135704,44.6260071,1024,"MAIN RD",,"EASTERN PASSAGE",,,"B0J 3A0",,d296d2271b8a8068
52,"B2Z 1A2",business,-63.4673479,44.7446454,52,"CAIN ST",,"NORTH PRESTON",,,"B2Z 1A2",,34ebec6f966975bb
1480,"B2T 1J1",business,-63.6133898,44.8180832,1480,"FALL RIVER RD",,"FALL RIVER",,,"B2T 1J1",,3c2784f4d588613e
6250,"B3L 1P5",business,-63.599224,44.6513454,6250,"NORTH ST",,HALIFAX,,,"B3L 1P5",,a43252f2f7585d38
5565,"B3K 5K9",residential,-63.5854421,44.651847,5565,"CORNWALLIS ST",,HALIFAX,,,"B3K 5K9",,b98e308fc54601f1
5228,"B3E 1J7",business,-63.2838636,44.7439677,5228,"HIGHWAY 7",,"PORTERS LAKE",,,"B3E 1J7",,90e3f220d9336f37
55,"B3M 2S6",business,-63.6672354,44.681606,55,"KEARNEY LAKE RD",,HALIFAX,,,"B3M 2S6",,cd42c31155d89150
27,"B3E 1H9",residential,-63.2783767,44.7443321,27,"JAMES ROY DR",,"PORTERS LAKE",,,"B3E 1H9",,06a1092e7c0ad57f
33,"B2Y 1P1",business,-63.5650135,44.6719914,33,"CRICHTON AVE",,DARTMOUTH,,,"B2Y 1P1",,441aeaafe3c1db12
34,"B4B 1G7",business,-63.7073971,44.7254415,34,"BLUEWATER RD",,BEDFORD,,,"B4B 1G7",,3f4c3dca7923cfbf
5415,"B3H 4K5",business,-63.571557,44.6364254,5415,"VICTORIA RD",,HALIFAX,,,"B3H 4K5",,e46b7678f755821f
79,"B3A 4W6",residential,-63.5643594,44.6754186,79,"CRICHTON AVE",,DARTMOUTH,,,"B3A 4W6",,6a70ed8781dc5639
7037,"B3L 2J1",business,-63.6239061,44.6500182,7037,"MUMFORD RD",,HALIFAX,,,"B3L 2J1",,308e2ca0d06a8d42
2044,"B3L 2X3",business,-63.6018423,44.6450788,2044,"KLINE ST",,HALIFAX,,,"B3L 2X3",,bf3b9de16faa36ca
2557,"B3K 3V6",business,-63.5912909,44.6557204,2557,"MAYNARD ST",,HALIFAX,,,"B3K 3V6",,7e6793edd90be5b5
34,"B2W 2X3",business,-63.5156077,44.6803134,34,"BELLE VISTA DR",,DARTMOUTH,,,"B2W 2X3",,e1e636d49c8fc0de
1400,"B3H 3Y8",business,-63.5965562,44.636238,1400,"OXFORD ST",,HALIFAX,,,"B3H 3Y8",,d9e8809a661ba2d3
29,"B3M 3A4",business,-63.6708045,44.6853749,29,"CASTLE HILL DR",,HALIFAX,,,"B3M 3A4",,b2c988e642b1b4f1
6895,"B3L 2J9",business,-63.6199845,44.6508925,6895,"COOK AVE",,HALIFAX,,,"B3L 2J9",,4be0d373f0c4f444
95,"B3E 1K2",business,-63.3094307,44.7336617,95,"WEST PORTERS LAKE RD",,"PORTERS LAKE",,,"B3E 1K2",,c93d4d864938cc2d
80,"B2Y 0A5",business,-63.5521188,44.653801,80,"MAWIOMI PL",,DARTMOUTH,,,"B2Y 0A5",,8025b68ba1481327
44,"B4C 1A9",business,-63.6879664,44.7749132,44,"BALSAM CIR",,"LOWER SACKVILLE",,,"B4C 1A9",,4d40fc55dc370f81
28,"B2X 1K8",business,-63.5305535,44.6856215,28,"CALEDONIA RD",,DARTMOUTH,,,"B2X 1K8",,e55f7bfc2904b93e
1,"B2Y 4A7",residential,-63.5713982,44.666909,1,"ALDERNEY DR",,DARTMOUTH,,,"B2Y 4A7",,51f4f6bcf041c0c0
5515,"B3H 4J9",residential,-63.574192,44.636706,5515,"VICTORIA RD",,HALIFAX,,,"B3H 4J9",,64db7ca11cd7bd56
12014,"B0N 1X0",business,-63.1367887,45.0520909,12014,"HIGHWAY 224",,"MIDDLE MUSQUODOBOIT",,,"B0N 1X0",,79ef20f9054712f7
5498,"B3H 1J8",business,-63.5729052,44.6349486,5498,"INGLIS ST",,HALIFAX,,,"B3H 1J8",,b90c53df5df0bd66
5540,"B3K 1X2",business,-63.5977787,44.6608089,5540,"RUSSELL ST",,HALIFAX,,,"B3K 1X2",,00cd17ece27971f6
8,"B2Y 4K1",residential,-63.5441124,44.6528118,8,"MOUNT HOPE AVE",,DARTMOUTH,,,"B2Y 4K1",,6e5527c8066a7c22
3340,"B3K 5T4",residential,-63.6031367,44.6661214,3340,"KENNY ST",,HALIFAX,,,"B3K 5T4",,7ba00c4f8aa40499
86,"B3G 1A2",business,-63.4890243,44.6137396,86,"COW BAY RD",,"EASTERN PASSAGE",,,"B3G 1A2",,42723c5875783ae2
3284,"B3L 3B3",business,-63.6173877,44.6547693,3284,"CONNAUGHT AVE",,HALIFAX,,,"B3L 3B3",,3fa11339c1652664
29,"B4A 2C3",business,-63.6593058,44.7400824,29,"MEADOWVIEW DR",,BEDFORD,,,"B4A 2C3",,3c85b675df6a4b9e
60,"B3A 4R9",business,-63.590024,44.6889149,60,"HIGHFIELD PARK DR",,DARTMOUTH,,,"B3A 4R9",,a484b63baeb37335
2717,"B3L 4T9",business,-63.6223607,44.6436399,2717,"JOSEPH HOWE DR",,HALIFAX,,,"B3L 4T9",,09d1c9c7b98d8da5
50,"B3M 3B5",business,-63.6669604,44.6800191,50,"DONALDSON AVE",,HALIFAX,,,"B3M 3B5",,ae2abd6ab0234d39
1799,"B2Z 1E9",business,-63.4397734,44.7100532,1799,"HIGHWAY 7",,"EAST PRESTON",,,"B2Z 1E9",,83cc4a0acd3952ff
290,"B3M 3V3",business,-63.6502137,44.6520365,290,"MAIN AVE",,HALIFAX,,,"B3M 3V3",,ce8bae7a5f2e5937
89,"B3M 2X5",business,-63.6419416,44.6580144,89,"GORDON AVE",,HALIFAX,,,"B3M 2X5",,dacbda52ff467682
1,"B3Z 1E5",business,-63.8748978,44.6897503,1,"FOX HOLLOW DR",,"UPPER TANTALLON",,,"B3Z 1E5",,15601cc1ba01d4fc
1,"B3Z 1E5",business,-63.8748978,44.6897503,1,"FOX HOLLOW DR",,"UPPER TANTALLON",,,"B3Z 1E5",,15601cc1ba01d4fc
1969,"B3J 3R7",business,-63.5745235,44.6526402,1969,"UPPER WATER ST",,HALIFAX,,,"B3J 3R7",,f629917dbbcc5a10
5845,"B3H 1G3",business,-63.5789125,44.6302389,5845,"GORSEBROOK AVE",,HALIFAX,,,"B3H 1G3",,a431105678a8b606
5845,"B3H 1G3",business,-63.5789125,44.6302389,5845,"GORSEBROOK AVE",,HALIFAX,,,"B3H 1G3",,a431105678a8b606
30,"B0J 3A0",business,-63.5109842,44.6268872,30,"KILGAR RD",,"EASTERN PASSAGE",,,"B0J 3A0",,2549e36c4f031ab5
36,"B3G 1A1",residential,-63.4924844,44.6124905,36,"COW BAY RD",,"EASTERN PASSAGE",,,"B3G 1A1",,ab3256929309aa27
27,"B4A 3K4",business,-63.6818374,44.7199697,27,"CHAMPLAIN CRT",,BEDFORD,,,"B4A 3K4",,ecf6c604d0600628
2770,"B3K 5E4",business,-63.6022712,44.653802,2770,"WINDSOR ST",,HALIFAX,,,"B3K 5E4",,023afcea49141e36
18,"B3P 2A2",business,-63.6117983,44.6286553,18,"COLINDALE ST",,HALIFAX,,,"B3P 2A2",,651eab12cc4c1da4
14,"B0J 3B0",residential,-62.5438727,44.9285163,14,"LAKE RD",,"SHEET HARBOUR",,,"B0J 3B0",,49677a988a101bc0
16,"B3A 3B7",residential,-63.5850079,44.6706404,16,"JAMIESON ST",,DARTMOUTH,,,"B3A 3B7",,06455c7165927985
1935,"B3G 1J2",residential,-63.4689785,44.6062596,1935,"CALDWELL RD",,"EASTERN PASSAGE",,,"B3G 1J2",,e4967d2c59d5a7a3
22,"B0J 1Y0",business,-62.9547086,44.7692291,22,"DAYLILY LANE",,"LAKE CHARLOTTE",,,"B0J 1Y0",,b77e99798c72ce42
18,"B2W 5C2",residential,-63.4942626,44.6760406,18,"CIRCASSION DR",,"COLE HARBOUR",,,"B2W 5C2",,52460fdc2590a051
5527,"B3J 1R2",business,-63.5819669,44.6505178,5527,"COGSWELL ST",,HALIFAX,,,"B3J 1R2",,68e67afcbefc2979
1221,"B3J 1Y2",business,-63.5703153,44.6404211,1221,"BARRINGTON ST",,HALIFAX,,,"B3J 1Y2",,1a05ae7997d899a0
971,"B4G 0A7",business,-63.6892793,44.794951,971,"WINDGATE DR",,"BEAVER BANK",,,"B4G 0A7",,755f56fb016403d7
1209,"B3H 4P8",business,-63.5661469,44.6407921,1209,"MARGINAL RD",,HALIFAX,,,"B3H 4P8",,a147f746adf26031
6583,"B3L 1B6",business,-63.6043916,44.6435806,6583,"QUINPOOL RD",,HALIFAX,,,"B3L 1B6",,5ae3e9f3cf99f5fc
22,"B0J 1Y0",business,-62.8758293,44.7322601,22,"HOWARD STEVENS WALK",,"CLAM HARBOUR",,,"B0J 1Y0",,fcbb4258cb897250
2990,"B3L 2W4",business,-63.6089946,44.6535963,2990,"OXFORD ST",,HALIFAX,,,"B3L 2W4",,94017cf5d3c07024
35,"B2X 2M1",business,-63.5507702,44.7036943,35,"ANDOVER ST",,DARTMOUTH,,,"B2X 2M1",,92ce84d63c28bdde
20,"B0J 1T0",business,-64.0418015,44.63278,20,"CONRADS BRANCH DR",,HUBBARDS,,,"B0J 1T0",,72e9f48cebbf951c
2236,"B3K 2Z9",business,-63.5840652,44.6530127,2236,"MAITLAND ST",,HALIFAX,,,"B3K 2Z9",,b5080cdb04320309
1274,"B3J 1T6",business,-63.5699978,44.6417541,1274,"HOLLIS ST",,HALIFAX,,,"B3J 1T6",,05bb41b1d200500e
6463,"B3L 1V6",business,-63.6077014,44.6509331,6463,"ALMON ST",,HALIFAX,,,"B3L 1V6",,dcaa14ca1ffc0f30
108,"B4C 3R7",business,-63.6780665,44.7630159,108,"HALLMARK AVE",,"LOWER SACKVILLE",,,"B4C 3R7",,d8f07b95d52aa817
2,"B2W 5C2",business,-63.4923335,44.6762909,2,"CIRCASSION DR",,"COLE HARBOUR",,,"B2W 5C2",,7f64b20918cee06d
2130,"B3L 3E3",business,-63.6095649,44.6425266,2130,"ARMCRESCENT WEST AVE",,HALIFAX,,,"B3L 3E3",,759fdb33f98329b3
177,"B2W 4K6",business,-63.4999592,44.6789535,177,"POPLAR DR",,"COLE HARBOUR",,,"B2W 4K6",,f4d1c8a9ef3aaef3
595,"B2V 1Y5",business,-63.4909789,44.6660847,595,"COLBY DR",,"COLE HARBOUR",,,"B2V 1Y5",,0ba11a36b0b36873
14,"B0J 3B0",residential,-62.4646938,44.8479938,14,"MOZIER COVE RD",,"SOBER ISLAND",,,"B0J 3B0",,bbc8807ba2669c0b
1772,"B3H 3Z6",business,-63.5993762,44.6421642,1772,"OXFORD ST",,HALIFAX,,,"B3H 3Z6",,55fc169e22d33fed
7,"B3P 1N3",business,-63.6188552,44.6233688,7,"MONT ST",,HALIFAX,,,"B3P 1N3",,27691029c2fa21b4
1385,"B4E 3A7",business,-63.7142783,44.7896226,1385,"SACKVILLE DR",,"MIDDLE SACKVILLE",,,"B4E 3A7",,01b39a74f4e98ca1
222,"B4C 2R4",business,-63.6710174,44.757567,222,"SACKVILLE DR",,"LOWER SACKVILLE",,,"B4C 2R4",,71fc9fc496091278
3115,"B3K 3G9",business,-63.5955734,44.664789,3115,"VEITH ST",,HALIFAX,,,"B3K 3G9",,b03c46402119669b
479,"B2W 4S1",business,-63.4830959,44.6781368,479,"ARKLOW DR",,"COLE HARBOUR",,,"B2W 4S1",,4284a7da62b98332
2705,"B3K 4L3",business,-63.5962981,44.6566857,2705,"FERN LANE",,HALIFAX,,,"B3K 4L3",,d40eae321e462580
6225,"B3L 1K7",business,-63.5985366,44.6499783,6225,"CHEBUCTO RD",,HALIFAX,,,"B3L 1K7",,0c8a73026a4ee533
5594,"B3J 1C2",business,-63.5755281,44.6403564,5594,"MORRIS ST",,HALIFAX,,,"B3J 1C2",,7d35f71316bc1fa6
1186,"B3H 4K9",residential,-63.5742231,44.6387906,1186,"QUEEN ST",,HALIFAX,,,"B3H 4K9",,3ebd784a3434faf7
18,"B3S 1C6",business,-63.6763521,44.6470097,18,"OLAND CRES",,HALIFAX,,,"B3S 1C6",,ee681a87c2359080
9,"B2Y 3X1",business,-63.5420566,44.6684002,9,"CHESTNUT LANE",,DARTMOUTH,,,"B2Y 3X1",,0a94374f8dbe39da
1,"B3Z 1K7",business,-63.8056288,44.7335099,1,"YANKEETOWN RD",,"HAMMONDS PLAINS",,,"B3Z 1K7",,4ef89c1e62c71a0a
7,"B3M 4N7",business,-63.6634429,44.6703224,7,"LANGBRAE DR",,HALIFAX,,,"B3M 4N7",,104434f5dfe02dd1
20,"B0J 1T0",business,-64.0391299,44.6426099,20,"REGAN RD",,QUEENSLAND,,,"B0J 1T0",,bfcd36341fb62892
4144,"B2Z 1R1",business,-63.3548791,44.6435957,4144,"LAWRENCETOWN RD",,"EAST LAWRENCETOWN",,,"B2Z 1R1",,1bd1e0dc63703746
1690,"B3T 1P7",business,-63.7101276,44.576597,1690,"PROSPECT RD",,"HATCHET LAKE",,,"B3T 1P7",,2753d06ffe5daea7
1237,"B2V 1N1",business,-63.4779437,44.6727934,1237,"COLE HARBOUR RD",,"COLE HARBOUR",,,"B2V 1N1",,ae84555bf5d6ef0b
1326,"B4A 1C9",business,-63.666131,44.7270729,1326,"BEDFORD HWY",,BEDFORD,,,"B4A 1C9",,76c7f8797cbf8147
5217,"B3K 6A6",business,-63.5953453,44.665047,5217,"YOUNG ST",,HALIFAX,,,"B3K 6A6",,e41ccb3f2459d54a
6101,"B3H 1T2",business,-63.5877663,44.6361286,6101,"SOUTH ST",,HALIFAX,,,"B3H 1T2",,bc2e3c11e3d049a8
19,"B0J 2L0",residential,-63.1663079,44.7811761,19,"WILLOWDALE DR",,"MUSQUODOBOIT HARBOUR",,,"B0J 2L0",,628ddc57d500bca3
67,"B3N 2G6",business,-63.6385249,44.6510977,67,"SUNNYBRAE AVE",,HALIFAX,,,"B3N 2G6",,44c7cc7cd96af4be
10089,"B0J 1T0",business,-64.0496477,44.6444796,10089,"ST MARGARETS BAY RD",,HUBBARDS,,,"B0J 1T0",,4f8af9f8b2d3957c
10089,"B0J 1T0",business,-64.0496477,44.6444796,10089,"ST MARGARETS BAY RD",,HUBBARDS,,,"B0J 1T0",,4f8af9f8b2d3957c
1,"B0J 1T0",residential,-64.0317778,44.6335532,1,"STACEY LANE",,QUEENSLAND,,,"B0J 1T0",,7c02ae36bdc784e9
22,"B3M 0C2",business,-63.6525225,44.6786109,22,"CARROLL LANE",,HALIFAX,,,"B3M 0C2",,8a7a0eab632acabd
2155,"B3L 4P9",business,-63.5961906,44.6469575,2155,"MONASTERY LANE",,HALIFAX,,,"B3L 4P9",,7472f2ca0e7ad4ea
100,"B4C 2G5",business,-63.6814878,44.7835731,100,"STOKIL DR",,"LOWER SACKVILLE",,,"B4C 2G5",,d1e25b6b71969fdc
20,"B0J 1T0",business,-64.0308009,44.6327842,20,"FITZGERALD RD",,QUEENSLAND,,,"B0J 1T0",,1fea1ed002698df4
1,"B0J 1T0",residential,-64.0258811,44.6363999,1,"BEACH VIEW DR",,QUEENSLAND,,,"B0J 1T0",,cd4266d1a93739a1
16,"B2W 6A1",business,-63.514313,44.6664399,16,"P THOMAS DR",,DARTMOUTH,,,"B2W 6A1",,c1e85f0181cffef8
7001,"B3L 4R4",residential,-63.6174693,44.646232,7001,"LEPPERT ST",,HALIFAX,,,"B3L 4R4",,36944eb30f822bbf
20,"B2W 5C2",residential,-63.4933318,44.6766228,20,"CIRCASSION DR",,"COLE HARBOUR",,,"B2W 5C2",,c075c1f5a6e84342
51,"B4E 1V4",residential,-63.6896174,44.7728595,51,"OLD BEAVER BANK RD",,"LOWER SACKVILLE",,,"B4E 1V4",,39a4124b650a0fee
28,"B2X 2B3",business,-63.5394289,44.695255,28,"GOUROK AVE",,DARTMOUTH,,,"B2X 2B3",,cc9d28c2406de9c9
114,"B2W 2S7",business,-63.5328729,44.6734878,114,"WOODLAWN RD",,DARTMOUTH,,,"B2W 2S7",,cd86caaaf8be0f44
2203,"B3K 3B5",business,-63.584961,44.6532534,2203,"GOTTINGEN ST",,HALIFAX,,,"B3K 3B5",,4201211bb86840f1
22,"B2W 5C2",residential,-63.4950636,44.676621,22,"CIRCASSION DR",,"COLE HARBOUR",,,"B2W 5C2",,f240c0101f4627d5
10,"B2W 1Y7",business,-63.5197836,44.6811782,10,"ROBLEA DR",,DARTMOUTH,,,"B2W 1Y7",,4ce8f68f805ec0eb
30,"B0J 3A0",business,-63.5194397,44.6262471,30,"CURTISS RD",,SHEARWATER,,,"B0J 3A0",,9658e5857edb248c
3008,"B3L 2W5",business,-63.6093172,44.6537662,3008,"OXFORD ST",,HALIFAX,,,"B3L 2W5",,0261e7408e0f8113
1040,"B4A 1B4",business,-63.6757841,44.7179697,1040,"BEDFORD HWY",,BEDFORD,,,"B4A 1B4",,dfb54a3530e95b97
5557,"B3K 1C5",business,-63.5865629,44.6528118,5557,"CUNARD ST",,HALIFAX,,,"B3K 1C5",,d46796abd0c25ab9
2531,"B3L 2Y5",business,-63.6044341,44.6467209,2531,"ELM ST",,HALIFAX,,,"B3L 2Y5",,35d0cc1ba02918a4
91,"B2Y 1M1",business,-63.5624807,44.671068,91,"PRINCE ALBERT RD",,DARTMOUTH,,,"B2Y 1M1",,2b2114524cd8be53
20,"B0J 1T0",business,-63.9962645,44.6519333,20,"CLEVELAND POINT RD",,QUEENSLAND,,,"B0J 1T0",,00f43a4dbc18bdde
1,"B0J 1T0",residential,-63.9982463,44.65313,1,"PUDDLE HILL LANE",,QUEENSLAND,,,"B0J 1T0",,4e27a36b9c5162e6
43,"B3A 4S7",business,-63.5870637,44.6862219,43,"JOSEPH YOUNG ST",,DARTMOUTH,,,"B3A 4S7",,e8d8dedd3679d042
1,"B2R 1E3",business,-63.5984431,44.7829973,1,"LAKEWOOD DR",,WAVERLEY,,,"B2R 1E3",,ffbf58177475dce8
14,"B3A 3B7",residential,-63.5855009,44.6706488,14,"JAMIESON ST",,DARTMOUTH,,,"B3A 3B7",,4174e92b683e42bd
5682,"B3K 1N4",business,-63.5932546,44.6556127,5682,"NORTH ST",,HALIFAX,,,"B3K 1N4",,7e88e4c2f8eaaad7
1475,"B4A 3Z5",business,-63.6605913,44.7304838,1475,"BEDFORD HWY",,BEDFORD,,,"B4A 3Z5",,4c77f14adee0a1d5
1378,"B4B 1P6",business,-63.7469074,44.7266988,1378,"HAMMONDS PLAINS RD",,"HAMMONDS PLAINS",,,"B4B 1P6",,619de69f59c98a6d
111,"B2Z 0A4",business,-63.4027359,44.6467291,111,"LITTLE POND LANE",,LAWRENCETOWN,,,"B2Z 0A4",,98c8070bfbac6396
6117,"B3H 2E8",business,-63.5917512,44.6428733,6117,"JUBILEE RD",,HALIFAX,,,"B3H 2E8",,82895e8ad40fb4d7
14,"B0J 3B0",residential,-62.5428661,44.926413,14,"ELMHURST DR",,"SHEET HARBOUR",,,"B0J 3B0",,9dbfe9f13494840d
43,"B4A 4C4",business,-63.6797835,44.7092282,43,"OCEANVIEW DR",,BEDFORD,,,"B4A 4C4",,4bfbd2090f7d88ab
6,"B3P 2M8",residential,-63.6134873,44.6194354,6,"ARNOLD DR",,HALIFAX,,,"B3P 2M8",,6514aee831b0455a
56,"B3M 2S8",business,-63.6677152,44.6812189,56,"KEARNEY LAKE RD",,HALIFAX,,,"B3M 2S8",,718ff095c60b6de9
1746,"B3T 1M8",residential,-63.709432,44.643524,1746,"ST MARGARETS BAY RD",,TIMBERLEA,,,"B3T 1M8",,0bee6697fb359d77
45,"B2Y 2N6",business,-63.5690225,44.6654758,45,"ALDERNEY DR",,DARTMOUTH,,,"B2Y 2N6",,317d2c2f9c7e12e1
5447,"B3Z 2H9",business,-63.8888091,44.6951031,5447,"ST MARGARETS BAY RD",,"UPPER TANTALLON",,,"B3Z 2H9",,7eda2c66145a2061
5508,"B3K 2A8",business,-63.5992743,44.6626791,5508,"HENNESSEY PL",,HALIFAX,,,"B3K 2A8",,1b349e30da1e32c9
320,"B2W 4T6",business,-63.4961105,44.6903433,320,"FLYING CLOUD DR",,"COLE HARBOUR",,,"B2W 4T6",,ead472fab9748f02
16,"B2W 5C2",residential,-63.4937329,44.6760378,16,"CIRCASSION DR",,"COLE HARBOUR",,,"B2W 5C2",,aa8fcc97f0a27987
28,"B0N 1X0",residential,-63.1481362,45.044276,28,"ELM DR",,"MIDDLE MUSQUODOBOIT",,,"B0N 1X0",,17860cfd3878b6c8
9,"B3Z 1H3",residential,-63.8558799,44.7024744,9,"ELEANOR LANE",,"STILLWATER LAKE",,,"B3Z 1H3",,69b7b9455f361a02
399,"B3Z 4K2",business,-63.8807862,44.7178723,399,"WESTWOOD BLVD",,"UPPER TANTALLON",,,"B3Z 4K2",,83964bfc9ae8a9c7
11,"B3B 1W4",business,-63.5964235,44.7078076,11,"SCARFE CRT",,DARTMOUTH,,,"B3B 1W4",,aa5bdc8089058959
181,"B3M 1B4",business,-63.6437162,44.6556743,181,"MAIN AVE",,HALIFAX,,,"B3M 1B4",,c885b64757232e4b
1233,"B3J 1Y2",business,-63.5704648,44.6406519,1233,"BARRINGTON ST",,HALIFAX,,,"B3J 1Y2",,17446422d663511a
166,"B3P 2N8",residential,-63.6212187,44.6315172,166,"COWIE HILL RD",,HALIFAX,,,"B3P 2N8",,5c06b59f965cf242
3405,"B3K 3M3",business,-63.6032439,44.6676765,3405,"DEVONSHIRE AVE",,HALIFAX,,,"B3K 3M3",,4ae23c63b3681908
95,"B4G 1C5",business,-63.6810808,44.8464197,95,"KINSAC RD",,"BEAVER BANK",,,"B4G 1C5",,ef625c6ec12816a9
66,"B2W 5B6",business,-63.5021005,44.6839006,66,"VALKYRIE CRES",,DARTMOUTH,,,"B2W 5B6",,513a11c5e1824b3b
19,"B0J 2L0",residential,-63.147141,44.7863755,19,"EAST PETPESWICK RD",,"MUSQUODOBOIT HARBOUR",,,"B0J 2L0",,cf93456dfbd82b0d
65,"B3N 2G6",business,-63.6383116,44.6511995,65,"SUNNYBRAE AVE",,HALIFAX,,,"B3N 2G6",,2ad28dc92513b667
2,"B3A 2K2",business,-63.5790746,44.6843677,2,"CEDAR CRT",,DARTMOUTH,,,"B3A 2K2",,3b8e9e439819dc20
22,"B4C 3M1",business,-63.6579368,44.7594836,22,"GLENDALE AVE",,"LOWER SACKVILLE",,,"B4C 3M1",,564c492607502f38
8416,"B0N 2M0",business,-62.9514369,45.1375724,8416,"HIGHWAY 224",,"UPPER MUSQUODOBOIT",,,"B0N 2M0",,083df6e839fab2cb
114,"B2W 2S7",business,-63.5313753,44.6731412,114,"WOODLAWN RD",,DARTMOUTH,,,"B2W 2S7",,37468915aea2bdec
1555,"B3H 3S9",business,-63.5934458,44.6392868,1555,"CHESTNUT ST",,HALIFAX,,,"B3H 3S9",,a73ba6f45459d43c
3,"B3M 2C9",business,-63.6611842,44.6823008,3,"DAKIN DR",,HALIFAX,,,"B3M 2C9",,ade38fe77bee1d37
129,"B3Z 0G5",business,-63.8719507,44.7218063,129,"WYNDHAM DR",,"UPPER TANTALLON",,,"B3Z 0G5",,fb5d3aaac045a959
3450,"B3K 5R5",residential,-63.6042254,44.6670831,3450,"DEVONSHIRE AVE",,HALIFAX,,,"B3K 5R5",,a0e416121375943d
2151,"B3K 3B5",business,-63.5839007,44.6525286,2151,"GOTTINGEN ST",,HALIFAX,,,"B3K 3B5",,6d6ecb004cd4d583
46,"B3Z 1B3",business,-63.7931658,44.6730697,46,"SHELDRAKE CRES",,HUBLEY,,,"B3Z 1B3",,e85bed23555e4937
1,"B3Z 1E5",business,-63.8701129,44.6881913,1,"ASHFORD CL",,"UPPER TANTALLON",,,"B3Z 1E5",,edec8b76253223b6
1,"B3Z 1E5",business,-63.8701129,44.6881913,1,"ASHFORD CL",,"UPPER TANTALLON",,,"B3Z 1E5",,edec8b76253223b6
6036,"B3H 1Y9",business,-63.5874418,44.6397043,6036,"COBURG RD",,HALIFAX,,,"B3H 1Y9",,91f312fe9e20d264
3,"B3M 4P8",residential,-63.6321762,44.6607765,3,"FORD ST",,HALIFAX,,,"B3M 4P8",,ee8c95541bf4a2d1
61,"B3A 3G7",business,-63.5808121,44.6730132,61,"BOLAND RD",,DARTMOUTH,,,"B3A 3G7",,a221c4aed3599fe5
109,"B4B 1W6",business,-63.8048226,44.7474093,109,"WHITE HILLS RUN",,"HAMMONDS PLAINS",,,"B4B 1W6",,0f407773cbc620cd
3260,"B3K 2X7",business,-63.5982286,44.6670511,3260,"BARRINGTON ST",,HALIFAX,,,"B3K 2X7",,2eb651ce6b7ae344
277,"B4E 1K1",business,-63.6893215,44.7968106,277,"BEAVER BANK RD",,"BEAVER BANK",,,"B4E 1K1",,400f6720b1634346
19,"B0J 2L0",residential,-63.146331,44.6876603,19,"COALIES HEAD LANE",,"EAST PETPESWICK",,,"B0J 2L0",,d9c6088bb2cc532d
449,"B2W 4L2",business,-63.5005923,44.6735357,449,"POPLAR DR",,"COLE HARBOUR",,,"B2W 4L2",,fac10cc3d3cb645f
91,"B4E 3B1",business,-63.7371541,44.8037251,91,"FENERTY RD",,"MIDDLE SACKVILLE",,,"B4E 3B1",,3ffebaf184b31cb6
201,"B2X 3T4",business,-63.5329319,44.7055607,201,"AVENUE DU PORTAGE",,DARTMOUTH,,,"B2X 3T4",,12499a80c11d7ca8
22,"B0J 1Y0",business,-62.8103629,44.775148,22,"POWER DR",,"LOWER SHIP HARBOUR",,,"B0J 1Y0",,105b470d90dad2f3
1,"B0J 1T0",residential,-64.0460826,44.6342407,1,"JOHNSON RD",,HUBBARDS,,,"B0J 1T0",,275b14db7f4eecf1
567,"B4C 2S4",business,-63.6839248,44.767718,567,"SACKVILLE DR",,"LOWER SACKVILLE",,,"B4C 2S4",,cf67aa8a05026764
32,"B3M 1H5",business,-63.6544967,44.6541229,32,"BIRKDALE CRES",,HALIFAX,,,"B3M 1H5",,fd51f70aa350bdf7
25,"B3A 3H9",business,-63.5801443,44.675922,25,"GRAHAM ST",,DARTMOUTH,,,"B3A 3H9",,5424e45c54040a75
1376,"B4B 1P6",business,-63.7465826,44.7270189,1376,"HAMMONDS PLAINS RD",,"HAMMONDS PLAINS",,,"B4B 1P6",,40ffe22e4a24356b
30,"B3T 1J4",business,-63.7462563,44.6614325,30,"FORESTGLEN DR",,TIMBERLEA,,,"B3T 1J4",,f9cd6a2815b80f23
22,"B0J 1Y0",business,-62.8421578,44.710454,22,"FISHERMAN RD",,"LITTLE HARBOUR",,,"B0J 1Y0",,5d6d6bee7d1eac66
69,"B3N 2G6",business,-63.6387629,44.6510328,69,"SUNNYBRAE AVE",,HALIFAX,,,"B3N 2G6",,0077bbb3695cdb04
9,"B2X 1Z7",business,-63.5382779,44.6923051,9,"DUMBARTON AVE",,DARTMOUTH,,,"B2X 1Z7",,c4d282513de27cf6
20,"B0J 1T0",business,-64.0594697,44.6376068,20,"YACHT CLUB RD",,HUBBARDS,,,"B0J 1T0",,98faaf53260b2002
60,"B3S 1E2",business,-63.6715076,44.6720978,60,"SCOTCH PINE TERR",,HALIFAX,,,"B3S 1E2",,8cce5192e253487c
3372,"B3K 3M2",business,-63.6022167,44.6668216,3372,"DEVONSHIRE AVE",,HALIFAX,,,"B3K 3M2",,7601342f1ca13786
12,"B3M 1S5",business,-63.6492528,44.67466,12,"FLAMINGO DR",,HALIFAX,,,"B3M 1S5",,f33ae952679c21e0
1,"B4E 2R9",business,-63.6998981,44.7895866,1,"UNITY CRT",,"MIDDLE SACKVILLE",,,"B4E 2R9",,5905bee73c391c23
31,"B3T 1Z6",business,-63.7797618,44.5141344,31,"PINEDALE DR",,"PROSPECT BAY",,,"B3T 1Z6",,c862ad5576b6e41a
2443,"B3K 4C1",business,-63.5908248,44.6535964,2443,"AGRICOLA ST",,HALIFAX,,,"B3K 4C1",,f4209d041fe1d71f
2473,"B3K 4C3",business,-63.5914173,44.654007,2473,"AGRICOLA ST",,HALIFAX,,,"B3K 4C3",,e19f97ff14d6a5fc
19,"B0J 2L0",residential,-63.0990929,44.7846941,19,"CHESTNUT DR",,"SMITHS SETTLEMENT",,,"B0J 2L0",,0be994c54a074a0b
58,"B3S 1E2",business,-63.6715396,44.6721966,58,"SCOTCH PINE TERR",,HALIFAX,,,"B3S 1E2",,9250d05e134239e8
2385,"B3K 4B8",business,-63.5896283,44.6527903,2385,"AGRICOLA ST",,HALIFAX,,,"B3K 4B8",,48e824ed9d227ec6
315,"B2Y 1K3",business,-63.5537654,44.6683016,315,"PORTLAND ST",,DARTMOUTH,,,"B2Y 1K3",,4ac5ca9fe4145351
16,"B2W 6A1",business,-63.5191708,44.6700987,16,"PORTLAND ESTATES BLVD",,DARTMOUTH,,,"B2W 6A1",,dd7bb05ac30cddc6
22,"B4C 2J3",business,-63.6631555,44.7527538,22,"MEMORY LANE",,"LOWER SACKVILLE",,,"B4C 2J3",,2029f0749d287162
22,"B4C 2J3",business,-63.6631555,44.7527538,22,"MEMORY LANE",,"LOWER SACKVILLE",,,"B4C 2J3",,2029f0749d287162
14,"B3V 1L9",business,-63.6330378,44.4666637,14,"NICKERSON RD",,"EAST PENNANT",,,"B3V 1L9",,6980704d8eaf71ad
19,"B0J 2L0",residential,-63.158786,44.7793623,19,"SPRUCE CRT",,"MUSQUODOBOIT HARBOUR",,,"B0J 2L0",,f4e1c4b214d28f95
1459,"B3J 3S7",business,-63.5782347,44.6418578,1459,"BRENTON ST",,HALIFAX,,,"B3J 3S7",,434a5750dc4b560f
3845,"B3L 4H9",business,-63.6272878,44.6609157,3845,"JOSEPH HOWE DR",,HALIFAX,,,"B3L 4H9",,390b6e05a24dcd46
11,"B0J 2L0",business,-63.1476839,44.786449,11,"EAST PETPESWICK RD",,"MUSQUODOBOIT HARBOUR",,,"B0J 2L0",,0f4336e147cafce5
751,"B0J 1Y0",business,-62.8442292,44.7941506,751,"WEST SHIP HARBOUR RD",,"LOWER SHIP HARBOUR",,,"B0J 1Y0",,214be3e72f5c4ee9
168,"B3G 1E4",business,-63.4779413,44.6075857,168,"REDOUBT WAY",,"EASTERN PASSAGE",,,"B3G 1E4",,b7b865c814af984e
11,"B0J 2L0",business,-63.1794947,44.7832624,11,"SCOTSDALE DR",,"MUSQUODOBOIT HARBOUR",,,"B0J 2L0",,67ef54949fc8a0b0
51,"B4A 2B9",residential,-63.6598737,44.7390624,51,"BRIDGE ST",,BEDFORD,,,"B4A 2B9",,6ade72ac2fbbffaf
54,"B3M 4R9",business,-63.6636434,44.6980567,54,"LARRY UTECK BLVD",,HALIFAX,,,"B3M 4R9",,9cc33494b8088570
1,"B0J 1T0",residential,-64.0552276,44.6393062,1,"TRUEMAN LANE",,HUBBARDS,,,"B0J 1T0",,247f480fcc99bbac
6250,"B3L 1N9",business,-63.5984857,44.6509013,6250,"WILLOW ST",,HALIFAX,,,"B3L 1N9",,562b3db736da631b
114,"B2W 2S7",business,-63.5330876,44.6721081,114,"WOODLAWN RD",,DARTMOUTH,,,"B2W 2S7",,53ae23c26c9fb809
6462,"B3L 1X4",business,-63.6086051,44.6517754,6462,"LONDON ST",,HALIFAX,,,"B3L 1X4",,c77cc3e128f15164
6155,"B3L 1J7",business,-63.5958374,44.6490849,6155,"LAWRENCE ST",,HALIFAX,,,"B3L 1J7",,e4c7f0955f6d5d7a
4,"B4E 1A7",business,-63.6959004,44.7780508,4,"JUDY AVE",,"LOWER SACKVILLE",,,"B4E 1A7",,3dfe085c65f6ae3a
20,"B4C 3E7",residential,-63.676712,44.7711373,20,"MCDOUGALL AVE",,"LOWER SACKVILLE",,,"B4C 3E7",,cc01177d91ae7960
639,"B2W 0J7",business,-63.5067091,44.6693903,639,"PORTLAND HILLS DR",,DARTMOUTH,,,"B2W 0J7",,ba5006e6a391b91e
91,"B4E 3B1",business,-63.7410442,44.8053359,91,"SPRINGFIELD LAKE RD",,"MIDDLE SACKVILLE",,,"B4E 3B1",,e3dc2fe060a456ee
28,"B0N 1X0",residential,-63.1171085,44.9759187,28,"ZIGZAG DR",,MURCHYVILLE,,,"B0N 1X0",,accc8c5f3b321ece
3331,"B3L 3B4",business,-63.6162276,44.6561103,3331,"CONNAUGHT AVE",,HALIFAX,,,"B3L 3B4",,0fec0cf1dc3ea743
1355,"B3H 4J1",business,-63.5936535,44.6356624,1355,"OXFORD ST",,HALIFAX,,,"B3H 4J1",,bfd9afd3f76d88c5
199,"B3M 2J9",business,-63.647084,44.6751335,199,"BEDFORD HWY",,HALIFAX,,,"B3M 2J9",,28916bba34a8a822
1600,"B4A 1E8",business,-63.6563867,44.7334245,1600,"BEDFORD HWY",,BEDFORD,,,"B4A 1E8",,3c2b96f69da7a0e9
49,"B2W 3K5",business,-63.5215097,44.6815278,49,"MOUNT EDWARD RD",,DARTMOUTH,,,"B2W 3K5",,74aab9a254055053
289,"B4E 1K1",business,-63.6884014,44.7975276,289,"BEAVER BANK RD",,"BEAVER BANK",,,"B4E 1K1",,54c0f0c4a115b1a4
94,"B3B 0A7",business,-63.5818682,44.7054074,94,"GARLAND AVE",,DARTMOUTH,,,"B3B 0A7",,b178bfd47295b113
82,"B2W 3E5",business,-63.5360898,44.6796079,82,"TACOMA DR",,DARTMOUTH,,,"B2W 3E5",,73d2fdc38122b9ce
15,"B2V 2T1",business,-63.4777622,44.6715687,15,"BISSETT RD",,"COLE HARBOUR",,,"B2V 2T1",,b8b11e868aca4757
114,"B4A 4C5",business,-63.6827977,44.7071286,114,"OCEANVIEW DR",,BEDFORD,,,"B4A 4C5",,76f5ebfff80cdf7a
15,"B3Z 1E4",business,-63.8779619,44.6912962,15,"FRENCH VILLAGE STATION RD",,"UPPER TANTALLON",,,"B3Z 1E4",,6b075fc79d0af4cf
15,"B3Z 1E4",business,-63.8779619,44.6912962,15,"FRENCH VILLAGE STATION RD",,"UPPER TANTALLON",,,"B3Z 1E4",,6b075fc79d0af4cf
5,"B3T 1A2",business,-63.6918511,44.6378286,5,"OLIVER ST",,BEECHVILLE,,,"B3T 1A2",,cbaa776888d0310f
19,"B0J 2L0",residential,-63.1488885,44.7877398,19,"HIGHWAY 357",,"MUSQUODOBOIT HARBOUR",,,"B0J 2L0",,0f069a02a68f4437
5594,"B3K 4B1",residential,-63.6159531,44.6715096,5594,"NORTH RIDGE RD",,HALIFAX,,,"B3K 4B1",,23402978bcee665e
480,"B3S 1P9",business,-63.6765224,44.6709805,480,"PARKLAND DR",,HALIFAX,,,"B3S 1P9",,da55ef69658503a8
480,"B3S 1P9",business,-63.6765224,44.6709805,480,"PARKLAND DR",,HALIFAX,,,"B3S 1P9",,da55ef69658503a8
19,"B0J 2L0",residential,-63.1039032,44.7797692,19,"SUNSET LANE",,"OSTREA LAKE",,,"B0J 2L0",,6ec6a9108ad8c2ee
14,"B0J 3B0",residential,-62.5317008,44.9193169,14,"BEHIE RD",,"SHEET HARBOUR",,,"B0J 3B0",,609582cd4b1d4f3e
5651,"B3H 1B9",business,-63.5714,44.6290243,5651,"OGILVIE ST",,HALIFAX,,,"B3H 1B9",,143c096d61e12991
4182,"B3E 1E6",business,-63.3306403,44.7400633,4182,"HIGHWAY 7",,"PORTERS LAKE",,,"B3E 1E6",,e3d5ff01f00bdaeb
1710,"B4E 3A9",business,-63.7295559,44.795471,1710,"SACKVILLE DR",,"MIDDLE SACKVILLE",,,"B4E 3A9",,4a5dce1972ec803e
1215,"B4B 2E1",business,-63.7366423,44.7251918,1215,"HAMMONDS PLAINS RD",,"HAMMONDS PLAINS",,,"B4B 2E1",,80505a54c718a74b
17,"B2X 3L2",business,-63.540184,44.6964983,17,"LANTANA TERR",,DARTMOUTH,,,"B2X 3L2",,90c61cc3785fdaf8
58,"B0J 1P0",business,-63.0624976,44.7750744,58,"GULL ROCK DR",,"HEAD OF JEDDORE",,,"B0J 1P0",,72a2eb7a487348b3
30,"B3P 2J8",business,-63.6218245,44.6298706,30,"RIDGE VALLEY RD",,HALIFAX,,,"B3P 2J8",,cf75ca53af320739
3461,"B3N 2S7",business,-63.6317776,44.654847,3461,"DUTCH VILLAGE RD",,HALIFAX,,,"B3N 2S7",,7d6b94e58b86d21c
325,"B3E 1J9",business,-63.2891322,44.7444142,325,"PORTERS LAKE STATION RD",,"PORTERS LAKE",,,"B3E 1J9",,3eecd99264e12726
325,"B3E 1J9",business,-63.2891322,44.7444142,325,"PORTERS LAKE STATION RD",,"PORTERS LAKE",,,"B3E 1J9",,3eecd99264e12726
194,"B2X 2C1",business,-63.5438862,44.6927554,194,"WAVERLEY RD",,DARTMOUTH,,,"B2X 2C1",,4424e78305b555da
2875,"B3E 1A4",business,-63.3947681,44.7288773,2875,"HIGHWAY 7",,"LAKE ECHO",,,"B3E 1A4",,0b7a9e6f82318e03
1,"B0J 1T0",residential,-64.0514736,44.6412058,1,"CONRADS RD",,HUBBARDS,,,"B0J 1T0",,313a71a96cb025d7
230,"B2Y 3R8",business,-63.5513161,44.6581819,230,"PLEASANT ST",,DARTMOUTH,,,"B2Y 3R8",,d514c6e4b48c4001
1714,"B3T 1B4",business,-63.7084086,44.6431848,1714,"ST MARGARETS BAY RD",,TIMBERLEA,,,"B3T 1B4",,a442b0525e4c3057
28,"B0N 1X0",residential,-63.114704,44.9731996,28,"BREAKAWAY BLVD",,MURCHYVILLE,,,"B0N 1X0",,69d77fe243674609
58,"B0J 1P0",business,-63.0359163,44.7690721,58,"ALVEWA DR",,"MYERS POINT",,,"B0J 1P0",,40cf231e0be937cb
55,"B2Y 4G4",residential,-63.5652369,44.6727266,55,"CRICHTON AVE",,DARTMOUTH,,,"B2Y 4G4",,32adea762bc85c7b
5251,"B3J 1P3",business,-63.5761409,44.6492387,5251,"DUKE ST",,HALIFAX,,,"B3J 1P3",,90fea5859dde8bb0
500,"B3M 0E6",business,-63.6780156,44.7002328,500,"LARRY UTECK BLVD",,HALIFAX,,,"B3M 0E6",,3d922ca711d7bbae
945,"B3H 2Y2",business,-63.577527,44.6326428,945,"TOWER RD",,HALIFAX,,,"B3H 2Y2",,9f56bdb4d1beb7da
4,"B3R 1M4",business,-63.6215544,44.6075085,4,"DEKKER ST",,HALIFAX,,,"B3R 1M4",,6ef09bb96f9a279f
166,"B3M 2J6",business,-63.6449762,44.6720305,166,"BEDFORD HWY",,HALIFAX,,,"B3M 2J6",,3cfed9aafee2e931
1,"B2Y 1Z7",business,-63.5422513,44.6660673,1,"REGENCY DR",,DARTMOUTH,,,"B2Y 1Z7",,273a5519a8a99ba9
11,"B0J 2L0",business,-63.1254187,44.7914556,11,"CEDAR DR",,"MUSQUODOBOIT HARBOUR",,,"B0J 2L0",,2bb0690e2da7cac6
11,"B0J 2L0",business,-63.1658307,44.7571553,11,"YOUNG DR",,"WEST PETPESWICK",,,"B0J 2L0",,042f01c369866f8a
11,"B0J 2L0",business,-63.1591805,44.7800178,11,"SPRUCE CRT",,"MUSQUODOBOIT HARBOUR",,,"B0J 2L0",,63f421b5b98bba16
530,"B2Y 4V6",business,-63.538175,44.6694214,530,"PORTLAND ST",,DARTMOUTH,,,"B2Y 4V6",,5d1a53fe29c2644c
28,"B4B 1G7",business,-63.7071692,44.7256616,28,"BLUEWATER RD",,BEDFORD,,,"B4B 1G7",,f5da4e948df72df0
12280,"B0N 1X0",business,-63.1459549,45.0443842,12280,"HIGHWAY 224",,"MIDDLE MUSQUODOBOIT",,,"B0N 1X0",,79d8ee1fff3fb4a1
20,"B0J 1T0",business,-64.0502147,44.6427236,20,"SHANKEL RD",,HUBBARDS,,,"B0J 1T0",,06955a9c616c50b3
65,"B4A 0H2",business,-63.6891691,44.7013165,65,"DELLRIDGE LANE",,BEDFORD,,,"B4A 0H2",,527cfe569a3bfcf8
930,"B0N 2M0",business,-62.8914077,45.1905304,930,"DEAN BACK RD",,DEAN,,,"B0N 2M0",,dbce9756ece2d0a9
28,"B0N 1X0",residential,-63.149263,45.0455585,28,"MAPLE DR",,"MIDDLE MUSQUODOBOIT",,,"B0N 1X0",,c1054286441dd1ef
8741,"B0N 2M0",business,-62.9608656,45.1280436,8741,"HIGHWAY 224",,"UPPER MUSQUODOBOIT",,,"B0N 2M0",,cbe61970449f6cc3
58,"B0J 1P0",business,-63.058308,44.752342,58,"FAULKNER CRES",,"HEAD OF JEDDORE",,,"B0J 1P0",,ca55b2fca43a5259
103,"B4C 2N1",business,-63.6605171,44.7561026,103,"COBEQUID RD",,"LOWER SACKVILLE",,,"B4C 2N1",,382fb50231d28849
1094,"B3H 2Z9",business,-63.5802413,44.6354308,1094,"WELLINGTON ST",,HALIFAX,,,"B3H 2Z9",,d2d3496fa208bcdf
3514,"B3L 4H7",business,-63.6304488,44.6560466,3514,"JOSEPH HOWE DR",,HALIFAX,,,"B3L 4H7",,2a04abd51b5e50b0
28,"B0N 1X0",residential,-63.1550484,45.0446425,28,"SIBLEY RD",,"MIDDLE MUSQUODOBOIT",,,"B0N 1X0",,37601597df48183b
30,"B0J 3A0",business,-63.5185783,44.631639,30,"BOUNDARY RD",,SHEARWATER,,,"B0J 3A0",,6d362cc8d5f23789
30,"B0J 3A0",business,-63.5214959,44.6342758,30,"BANSHEE AVE",,SHEARWATER,,,"B0J 3A0",,7a31105e5ac7a9fc
30,"B0J 3A0",business,-63.5205656,44.6343569,30,"SEAFIRE AVE",,SHEARWATER,,,"B0J 3A0",,344a999a9f12c0e3
30,"B0J 3A0",business,-63.5219281,44.635184,30,"MARTLET PL",,SHEARWATER,,,"B0J 3A0",,444f7da8d6e06419
22,"B0J 1Y0",business,-62.8189659,44.7573894,22,"DEBAIES COVE RD",,"DEBAIES COVE",,,"B0J 1Y0",,4e93e379472d2e23
19,"B0J 2L0",residential,-63.0883881,44.7201244,19,"WHARF RD",,"OSTREA LAKE",,,"B0J 2L0",,15c042866e3ef8a8
19,"B0J 2L0",residential,-63.1589512,44.7994521,19,"BAYERS MILL RD",,"MUSQUODOBOIT HARBOUR",,,"B0J 2L0",,97103d134eff4dab
19,"B0J 2L0",residential,-63.0904138,44.7191145,19,"WILLIAMS RD",,"OSTREA LAKE",,,"B0J 2L0",,3270db22c6542e65
19,"B0J 2L0",residential,-63.0697837,44.7186652,19,"CROSS RD",,"OSTREA LAKE",,,"B0J 2L0",,cb77c9ea93602cff
29,"B3Z 1H4",business,-63.8600738,44.7063994,29,"WESTWOOD BLVD",,"UPPER TANTALLON",,,"B3Z 1H4",,81b5a1dcc9b8db63
